{
  "links" : {
    "next" : "https://api.nasa.gov/neo/rest/v1/feed?start_date=2013-02-16&end_date=2013-02-16&detailed=true&api_key=t0TVs3DtDT2H8Oy2Zy8m2eVrNsAVKAexjcZXUckd",
    "prev" : "https://api.nasa.gov/neo/rest/v1/feed?start_date=2013-02-14&end_date=2013-02-14&detailed=true&api_key=t0TVs3DtDT2H8Oy2Zy8m2eVrNsAVKAexjcZXUckd",
    "self" : "https://api.nasa.gov/neo/rest/v1/feed?start_date=2013-02-15&end_date=2013-02-15&detailed=true&api_key=t0TVs3DtDT2H8Oy2Zy8m2eVrNsAVKAexjcZXUckd"
  },
  "element_count" : 10,
  "near_earth_objects" : {
    "2013-02-15" : [ {
      "links" : {
        "self" : "https://api.nasa.gov/neo/rest/v1/neo/3761734?api_key=t0TVs3DtDT2H8Oy2Zy8m2eVrNsAVKAexjcZXUckd"
      },
      "neo_reference_id" : "3761734",
      "name" : "(2016 UN36)",
      "nasa_jpl_url" : "http://ssd.jpl.nasa.gov/sbdb.cgi?sstr=3761734",
      "absolute_magnitude_h" : 24.2,
      "estimated_diameter" : {
        "kilometers" : {
          "estimated_diameter_min" : 0.0384197891,
          "estimated_diameter_max" : 0.0859092601
        },
        "meters" : {
          "estimated_diameter_min" : 38.4197891064,
          "estimated_diameter_max" : 85.9092601232
        },
        "miles" : {
          "estimated_diameter_min" : 0.0238729428,
          "estimated_diameter_max" : 0.0533815229
        },
        "feet" : {
          "estimated_diameter_min" : 126.0491808919,
          "estimated_diameter_max" : 281.8545369825
        }
      },
      "is_potentially_hazardous_asteroid" : false,
      "close_approach_data" : [ {
        "close_approach_date" : "2013-02-15",
        "epoch_date_close_approach" : 1360915200000,
        "relative_velocity" : {
          "kilometers_per_second" : "4.2680519762",
          "kilometers_per_hour" : "15364.9871141517",
          "miles_per_hour" : "9547.2054654572"
        },
        "miss_distance" : {
          "astronomical" : "0.4738857083",
          "lunar" : "184.3415374756",
          "kilometers" : "70892296",
          "miles" : "44050428"
        },
        "orbiting_body" : "Earth"
      } ],
      "orbital_data" : {
        "orbit_id" : "28",
        "orbit_determination_date" : "2017-04-06 08:22:47",
        "orbit_uncertainty" : "5",
        "minimum_orbit_intersection" : ".0543057",
        "jupiter_tisserand_invariant" : "4.276",
        "epoch_osculation" : "2458000.5",
        "eccentricity" : ".3541380961055804",
        "semi_major_axis" : "1.607293188790749",
        "inclination" : "2.56366429062883",
        "ascending_node_longitude" : "264.3321675641453",
        "orbital_period" : "744.2881136563802",
        "perihelion_distance" : "1.038089439028926",
        "perihelion_argument" : "168.1346044393927",
        "aphelion_distance" : "2.176496938552572",
        "perihelion_time" : "2457727.584314897368",
        "mean_anomaly" : "132.0048578423314",
        "mean_motion" : ".4836836614674238",
        "equinox" : "J2000"
      }
    } ]
  }
}